[{"OBJECT_NAME":"STARLINK-36118","OBJECT_ID":"2025-293G","EPOCH":"2026-03-09T18:52:55.578432","MEAN_MOTION":14.9831791,"ECCENTRICITY":0.00039551,"INCLINATION":70.0019,"RA_OF_ASC_NODE":94.1613,"ARG_OF_PERICENTER":270.0357,"MEAN_ANOMALY":90.0349,"EPHEMERIS_TYPE":0,"CLASSIFICATION_TYPE":"U","NORAD_CAT_ID":67009,"ELEMENT_SET_NO":999,"REV_AT_EPOCH":1490,"BSTAR":0.00042754978,"MEAN_MOTION_DOT":5.011e-5,"MEAN_MOTION_DDOT":0},{"OBJECT_NAME":"ANTELSAT","OBJECT_ID":"2014-033AA","EPOCH":"2026-03-09T21:56:19.142880","MEAN_MOTION":14.90152282,"ECCENTRICITY":0.00441676,"INCLINATION":97.764,"RA_OF_ASC_NODE":226.2739,"ARG_OF_PERICENTER":26.8149,"MEAN_ANOMALY":333.5339,"EPHEMERIS_TYPE":0,"CLASSIFICATION_TYPE":"U","NORAD_CAT_ID":40034,"ELEMENT_SET_NO":999,"REV_AT_EPOCH":63102,"BSTAR":0.00055679105,"MEAN_MOTION_DOT":5.434e-5,"MEAN_MOTION_DDOT":0}]
